{"type": "FeatureCollection", "features": [ {"type": "Feature", "properties": {"norad_id": 66619, "name": "STARLINK-35951", "group": "last-30-days", "lat": 53.13608698028137, "lon": -76.20553084376334, "alt_km": 394.5705361700302, "timestamp": "2025-12-11T13:55:00.914808+00:00", "meta": {"OBJECT_NAME": "STARLINK-35951", "OBJECT_ID": "2025-271C", "EPOCH": "2025-12-11T06:00:02.999808", "MEAN_MOTION": 15.56433047, "ECCENTRICITY": 8.428e-05, "INCLINATION": 53.1601, "RA_OF_ASC_NODE": 194.3784, "ARG_OF_PERICENTER": 95.5551, "MEAN_ANOMALY": 306.7786, "EPHEMERIS_TYPE": 0, "CLASSIFICATION_TYPE": "U", "NORAD_CAT_ID": 66619, "ELEMENT_SET_NO": 999, "REV_AT_EPOCH": 400, "BSTAR": -0.033025466, "MEAN_MOTION_DOT": -0.02113525, "MEAN_MOTION_DDOT": 0}, "tle": {"line1": "1 66619U 25271C   25345.25003472 -.02113525  00000+0 -33025-1 0  9991", "line2": "2 66619  53.1601 194.3784 0000842  95.5551 306.7786 15.56433047  4005"}}, "geometry": {"type": "Point", "coordinates": [-76.20553084376334, 53.13608698028137]}}, {"type": "Feature", "properties": {"norad_id": 66620, "name": "STARLINK-35936", "group": "last-30-days", "lat": 52.83223641664438, "lon": -85.75390453947614, "alt_km": 394.6294657458502, "timestamp": "2025-12-11T13:55:00.914819+00:00", "meta": {"OBJECT_NAME": "STARLINK-35936", "OBJECT_ID": "2025-271D", "EPOCH": "2025-12-11T06:00:02.999808", "MEAN_MOTION": 15.56433717, "ECCENTRICITY": 8.037e-05, "INCLINATION": 53.16, "RA_OF_ASC_NODE": 194.3917, "ARG_OF_PERICENTER": 88.1957, "MEAN_ANOMALY": 308.3852, "EPHEMERIS_TYPE": 0, "CLASSIFICATION_TYPE": "U", "NORAD_CAT_ID": 66620, "ELEMENT_SET_NO": 999, "REV_AT_EPOCH": 400, "BSTAR": -0.032997993, "MEAN_MOTION_DOT": -0.02111984, "MEAN_MOTION_DDOT": 0}, "tle": {"line1": "1 66620U 25271D   25345.25003472 -.02111984  00000+0 -32998-1 0  9998", "line2": "2 66620  53.1600 194.3917 0000803  88.1957 308.3852 15.56433717  4005"}}, "geometry": {"type": "Point", "coordinates": [-85.75390453947614, 52.83223641664438]}}, {"type": "Feature", "properties": {"norad_id": 66621, "name": "STARLINK-35847", "group": "last-30-days", "lat": 31.03272088035434, "lon": -14.130068144655473, "alt_km": 398.065695766134, "timestamp": "2025-12-11T13:55:00.914829+00:00", "meta": {"OBJECT_NAME": "STARLINK-35847", "OBJECT_ID": "2025-271E", "EPOCH": "2025-12-11T06:00:02.999808", "MEAN_MOTION": 15.56434519, "ECCENTRICITY": 0.00012616, "INCLINATION": 53.1593, "RA_OF_ASC_NODE": 194.2752, "ARG_OF_PERICENTER": 74.532, "MEAN_ANOMALY": 16.9903, "EPHEMERIS_TYPE": 0, "CLASSIFICATION_TYPE": "U", "NORAD_CAT_ID": 66621, "ELEMENT_SET_NO": 999, "REV_AT_EPOCH": 400, "BSTAR": -0.032952463, "MEAN_MOTION_DOT": -0.02109746, "MEAN_MOTION_DDOT": 0}, "tle": {"line1": "1 66621U 25271E   25345.25003472 -.02109746  00000+0 -32952-1 0  9992", "line2": "2 66621  53.1593 194.2752 0001261  74.5320  16.9903 15.56434519  4005"}}, "geometry": {"type": "Point", "coordinates": [-14.130068144655473, 31.03272088035434]}}, {"type": "Feature", "properties": {"norad_id": 66622, "name": "STARLINK-35950", "group": "last-30-days", "lat": 53.06604248628112, "lon": -73.01053955295872, "alt_km": 394.58062274954045, "timestamp": "2025-12-11T13:55:00.914839+00:00", "meta": {"OBJECT_NAME": "STARLINK-35950", "OBJECT_ID": "2025-271F", "EPOCH": "2025-12-11T06:00:02.999808", "MEAN_MOTION": 15.56433212, "ECCENTRICITY": 8.204e-05, "INCLINATION": 53.16, "RA_OF_ASC_NODE": 194.3756, "ARG_OF_PERICENTER": 88.803, "MEAN_ANOMALY": 315.4459, "EPHEMERIS_TYPE": 0, "CLASSIFICATION_TYPE": "U", "NORAD_CAT_ID": 66622, "ELEMENT_SET_NO": 999, "REV_AT_EPOCH": 400, "BSTAR": -0.032996294, "MEAN_MOTION_DOT": -0.02111862, "MEAN_MOTION_DDOT": 0}, "tle": {"line1": "1 66622U 25271F   25345.25003472 -.02111862  00000+0 -32996-1 0  9993", "line2": "2 66622  53.1600 194.3756 0000820  88.8030 315.4459 15.56433212  4008"}}, "geometry": {"type": "Point", "coordinates": [-73.01053955295872, 53.06604248628112]}}, {"type": "Feature", "properties": {"norad_id": 66623, "name": "STARLINK-35920", "group": "last-30-days", "lat": 52.671640021523565, "lon": -66.69080889462472, "alt_km": 394.6700219548211, "timestamp": "2025-12-11T13:55:00.914850+00:00", "meta": {"OBJECT_NAME": "STARLINK-35920", "OBJECT_ID": "2025-271G", "EPOCH": "2025-12-11T06:00:02.999808", "MEAN_MOTION": 15.56428406, "ECCENTRICITY": 7.687e-05, "INCLINATION": 53.16, "RA_OF_ASC_NODE": 194.3666, "ARG_OF_PERICENTER": 92.6165, "MEAN_ANOMALY": 315.4684, "EPHEMERIS_TYPE": 0, "CLASSIFICATION_TYPE": "U", "NORAD_CAT_ID": 66623, "ELEMENT_SET_NO": 999, "REV_AT_EPOCH": 400, "BSTAR": -0.032896367, "MEAN_MOTION_DOT": -0.02105802, "MEAN_MOTION_DDOT": 0}, "tle": {"line1": "1 66623U 25271G   25345.25003472 -.02105802  00000+0 -32896-1 0  9990", "line2": "2 66623  53.1600 194.3666 0000768  92.6165 315.4684 15.56428406  4001"}}, "geometry": {"type": "Point", "coordinates": [-66.69080889462472, 52.671640021523565]}}, {"type": "Feature", "properties": {"norad_id": 66624, "name": "STARLINK-35927", "group": "last-30-days", "lat": 52.91069776354588, "lon": -69.83404381200612, "alt_km": 394.57110289911543, "timestamp": "2025-12-11T13:55:00.914862+00:00", "meta": {"OBJECT_NAME": "STARLINK-35927", "OBJECT_ID": "2025-271H", "EPOCH": "2025-12-11T06:00:02.999808", "MEAN_MOTION": 15.56430945, "ECCENTRICITY": 8.738e-05, "INCLINATION": 53.1599, "RA_OF_ASC_NODE": 194.3716, "ARG_OF_PERICENTER": 92.7735, "MEAN_ANOMALY": 313.396, "EPHEMERIS_TYPE": 0, "CLASSIFICATION_TYPE": "U", "NORAD_CAT_ID": 66624, "ELEMENT_SET_NO": 999, "REV_AT_EPOCH": 400, "BSTAR": -0.032993603, "MEAN_MOTION_DOT": -0.02111583, "MEAN_MOTION_DDOT": 0}, "tle": {"line1": "1 66624U 25271H   25345.25003472 -.02111583  00000+0 -32994-1 0  9993", "line2": "2 66624  53.1599 194.3716 0000873  92.7735 313.3960 15.56430945  4001"}}, "geometry": {"type": "Point", "coordinates": [-69.83404381200612, 52.91069776354588]}}, {"type": "Feature", "properties": {"norad_id": 66625, "name": "STARLINK-35929", "group": "last-30-days", "lat": 52.349834652852124, "lon": -63.58463243108733, "alt_km": 394.6983283917634, "timestamp": "2025-12-11T13:55:00.914874+00:00", "meta": {"OBJECT_NAME": "STARLINK-35929", "OBJECT_ID": "2025-271J", "EPOCH": "2025-12-11T06:00:02.999808", "MEAN_MOTION": 15.5642857, "ECCENTRICITY": 7.877e-05, "INCLINATION": 53.16, "RA_OF_ASC_NODE": 194.3626, "ARG_OF_PERICENTER": 93.6652, "MEAN_ANOMALY": 316.3359, "EPHEMERIS_TYPE": 0, "CLASSIFICATION_TYPE": "U", "NORAD_CAT_ID": 66625, "ELEMENT_SET_NO": 999, "REV_AT_EPOCH": 400, "BSTAR": -0.032887491, "MEAN_MOTION_DOT": -0.0210532, "MEAN_MOTION_DDOT": 0}, "tle": {"line1": "1 66625U 25271J   25345.25003472 -.02105320  00000+0 -32887-1 0  9997", "line2": "2 66625  53.1600 194.3626 0000787  93.6652 316.3359 15.56428570  4003"}}, "geometry": {"type": "Point", "coordinates": [-63.58463243108733, 52.349834652852124]}}, {"type": "Feature", "properties": {"norad_id": 66626, "name": "STARLINK-35902", "group": "last-30-days", "lat": 51.946793319643135, "lon": -60.52417475240208, "alt_km": 394.6398059219273, "timestamp": "2025-12-11T13:55:00.914884+00:00", "meta": {"OBJECT_NAME": "STARLINK-35902", "OBJECT_ID": "2025-271K", "EPOCH": "2025-12-11T06:00:02.999808", "MEAN_MOTION": 15.56429406, "ECCENTRICITY": 9.546e-05, "INCLINATION": 53.1598, "RA_OF_ASC_NODE": 194.3589, "ARG_OF_PERICENTER": 92.0972, "MEAN_ANOMALY": 319.8224, "EPHEMERIS_TYPE": 0, "CLASSIFICATION_TYPE": "U", "NORAD_CAT_ID": 66626, "ELEMENT_SET_NO": 999, "REV_AT_EPOCH": 400, "BSTAR": -0.032912985, "MEAN_MOTION_DOT": -0.02106936, "MEAN_MOTION_DDOT": 0}, "tle": {"line1": "1 66626U 25271K   25345.25003472 -.02106936  00000+0 -32913-1 0  9992", "line2": "2 66626  53.1598 194.3589 0000954  92.0972 319.8224 15.56429406  4000"}}, "geometry": {"type": "Point", "coordinates": [-60.52417475240208, 51.946793319643135]}}, {"type": "Feature", "properties": {"norad_id": 66627, "name": "STARLINK-35904", "group": "last-30-days", "lat": 51.46656713310171, "lon": -57.52750417453123, "alt_km": 394.75462346390395, "timestamp": "2025-12-11T13:55:00.914898+00:00", "meta": {"OBJECT_NAME": "STARLINK-35904", "OBJECT_ID": "2025-271L", "EPOCH": "2025-12-11T06:00:02.999808", "MEAN_MOTION": 15.56438194, "ECCENTRICITY": 9.047e-05, "INCLINATION": 53.1598, "RA_OF_ASC_NODE": 194.3549, "ARG_OF_PERICENTER": 85.8369, "MEAN_ANOMALY": 327.9927, "EPHEMERIS_TYPE": 0, "CLASSIFICATION_TYPE": "U", "NORAD_CAT_ID": 66627, "ELEMENT_SET_NO": 999, "REV_AT_EPOCH": 384, "BSTAR": -0.03308344, "MEAN_MOTION_DOT": -0.02117226, "MEAN_MOTION_DDOT": 0}, "tle": {"line1": "1 66627U 25271L   25345.25003472 -.02117226  00000+0 -33083-1 0  9996", "line2": "2 66627  53.1598 194.3549 0000904  85.8369 327.9927 15.56438194  3847"}}, "geometry": {"type": "Point", "coordinates": [-57.52750417453123, 51.46656713310171]}}, {"type": "Feature", "properties": {"norad_id": 66628, "name": "STARLINK-35862", "group": "last-30-days", "lat": 50.91090121555727, "lon": -54.59601567137552, "alt_km": 394.81253064905286, "timestamp": "2025-12-11T13:55:00.914909+00:00", "meta": {"OBJECT_NAME": "STARLINK-35862", "OBJECT_ID": "2025-271M", "EPOCH": "2025-12-11T06:00:02.999808", "MEAN_MOTION": 15.56431429, "ECCENTRICITY": 0.00010098, "INCLINATION": 53.1597, "RA_OF_ASC_NODE": 194.3509, "ARG_OF_PERICENTER": 74.7355, "MEAN_ANOMALY": 341.0147, "EPHEMERIS_TYPE": 0, "CLASSIFICATION_TYPE": "U", "NORAD_CAT_ID": 66628, "ELEMENT_SET_NO": 999, "REV_AT_EPOCH": 400, "BSTAR": -0.032949441, "MEAN_MOTION_DOT": -0.02109191, "MEAN_MOTION_DDOT": 0}, "tle": {"line1": "1 66628U 25271M   25345.25003472 -.02109191  00000+0 -32949-1 0  9999", "line2": "2 66628  53.1597 194.3509 0001009  74.7355 341.0147 15.56431429  4006"}}, "geometry": {"type": "Point", "coordinates": [-54.59601567137552, 50.91090121555727]}}]}